42809,IRIDIUM 126,2017,100.4,860.0,+,86.39,Active,1,LEO,USA,USA,Commercial/Government,Communications,Falcon,1 42809U 17039G   24133.92752972  .00000330  00000+0  11078-3 0  9994,2 42809  86.3936 313.4520 0002267  85.0734 275.0720 14.34220144360267,14.34220144,0.0002267,LEO
42810,IRIDIUM 124,2017,99.77,860.0,+,86.45,Active,1,LEO,USA,USA,Commercial/Government,Communications,Falcon,1 42810U 17039H   24133.84790034  .00001787  00000+0  52488-3 0  9995,2 42810  86.4498 250.1881 0002061  93.2964 266.8472 14.43299173364723,14.43299173,0.0002061,LEO
42811,IRIDIUM 128,2017,100.4,860.0,+,86.4,Active,1,LEO,USA,USA,Commercial/Government,Communications,Falcon,1 42811U 17039J   24133.84849568  .00000136  00000+0  41479-4 0  9999,2 42811  86.3972 345.0094 0002062  83.0543 277.0888 14.34224537360285,14.34224537,0.0002062,LEO
42812,IRIDIUM 121,2017,100.4,860.0,+,86.39,Active,1,LEO,USA,USA,Commercial/Government,Communications,Falcon,1 42812U 17039K   24134.50470369  .00000326  00000+0  10919-3 0  9998,2 42812  86.3935 313.2327 0002163  91.0227 269.1217 14.34215650360342,14.3421565,0.0002163,LEO
42955,IRIDIUM 133,2017,100.4,860.0,+,86.4,Active,1,LEO,USA,USA,Commercial/Government,Communications,Falcon,1 42955U 17061A   24134.50812438  .00000405  00000+0  13741-3 0  9992,2 42955  86.3976 344.8326 0002191  85.3232 274.8214 14.34221833345171,14.34221833,0.0002191,LEO
42956,IRIDIUM 100,2017,100.4,860.0,+,86.4,Active,1,LEO,USA,USA,Commercial/Government,Communications,Falcon,1 42956U 17061B   24133.94364378  .00000993  00000+0  34750-3 0  9990,2 42956  86.3973 345.0050 0002288  84.6506 275.4951 14.34226040345090,14.3422604,0.0002288,LEO
42957,IRIDIUM 122,2017,100.4,860.0,+,86.4,Active,1,LEO,USA,USA,Commercial/Government,Communications,Falcon,1 42957U 17061C   24134.12122481  .00000895  00000+0  31256-3 0  9998,2 42957  86.3973 344.9291 0002151  85.9380 274.2062 14.34223628345122,14.34223628,0.0002151,LEO
42958,IRIDIUM 129,2017,100.4,860.0,+,86.4,Active,1,LEO,USA,USA,Commercial/Government,Communications,Falcon,1 42958U 17061D   24133.86752123  .00000164  00000+0  51332-4 0  9998,2 42958  86.3971 345.0940 0002161  81.7508 278.3933 14.34220201345105,14.34220201,0.0002161,LEO
